{"type": "FeatureCollection", "features": [ {"type": "Feature", "properties": {"norad_id": 43437, "name": "SENTINEL-3B", "group": "resource", "lat": 76.84692922397619, "lon": -83.07467603816575, "alt_km": 794.2342164141055, "timestamp": "2025-12-17T07:00:46.549240+00:00", "meta": {"OBJECT_NAME": "SENTINEL-3B", "OBJECT_ID": "2018-039A", "EPOCH": "2025-12-16T22:07:50.561472", "MEAN_MOTION": 14.26735597, "ECCENTRICITY": 0.00016274, "INCLINATION": 98.6265, "RA_OF_ASC_NODE": 56.0475, "ARG_OF_PERICENTER": 97.5988, "MEAN_ANOMALY": 262.5377, "EPHEMERIS_TYPE": 0, "CLASSIFICATION_TYPE": "U", "NORAD_CAT_ID": 43437, "ELEMENT_SET_NO": 999, "REV_AT_EPOCH": 39813, "BSTAR": 6.9204281e-05, "MEAN_MOTION_DOT": 1.24e-06, "MEAN_MOTION_DDOT": 0}, "tle": {"line1": "1 43437U 18039A   25350.92211298  .00000124  00000+0  69204-4 0  9992", "line2": "2 43437  98.6265  56.0475 0001627  97.5988 262.5377 14.26735597398133"}}, "geometry": {"type": "Point", "coordinates": [-83.07467603816575, 76.84692922397619]}}, {"type": "Feature", "properties": {"norad_id": 43461, "name": "GAOFEN-5 01", "group": "resource", "lat": -76.84408243798316, "lon": -6.262873859482382, "alt_km": 698.7713179575612, "timestamp": "2025-12-17T07:00:46.549250+00:00", "meta": {"OBJECT_NAME": "GAOFEN-5 01", "OBJECT_ID": "2018-043A", "EPOCH": "2025-12-16T21:30:43.598880", "MEAN_MOTION": 14.60414456, "ECCENTRICITY": 6.927e-05, "INCLINATION": 98.433, "RA_OF_ASC_NODE": 313.9362, "ARG_OF_PERICENTER": 320.1182, "MEAN_ANOMALY": 39.9967, "EPHEMERIS_TYPE": 0, "CLASSIFICATION_TYPE": "U", "NORAD_CAT_ID": 43461, "ELEMENT_SET_NO": 999, "REV_AT_EPOCH": 40508, "BSTAR": 9.4791688e-05, "MEAN_MOTION_DOT": 4.1e-06, "MEAN_MOTION_DDOT": 0}, "tle": {"line1": "1 43461U 18043A   25350.89633795  .00000410  00000+0  94792-4 0  9998", "line2": "2 43461  98.4330 313.9362 0000692 320.1182  39.9967 14.60414456405083"}}, "geometry": {"type": "Point", "coordinates": [-6.262873859482382, -76.84408243798316]}}, {"type": "Feature", "properties": {"norad_id": 43484, "name": "GAOFEN-6", "group": "resource", "lat": -0.05950225731149387, "lon": -124.60183695968074, "alt_km": 649.0583029008203, "timestamp": "2025-12-17T07:00:46.549260+00:00", "meta": {"OBJECT_NAME": "GAOFEN-6", "OBJECT_ID": "2018-048A", "EPOCH": "2025-12-16T23:41:46.003200", "MEAN_MOTION": 14.76573645, "ECCENTRICITY": 0.00130564, "INCLINATION": 97.8032, "RA_OF_ASC_NODE": 55.1117, "ARG_OF_PERICENTER": 51.0289, "MEAN_ANOMALY": 309.2083, "EPHEMERIS_TYPE": 0, "CLASSIFICATION_TYPE": "U", "NORAD_CAT_ID": 43484, "ELEMENT_SET_NO": 999, "REV_AT_EPOCH": 40650, "BSTAR": 6.8710165e-05, "MEAN_MOTION_DOT": 4.31e-06, "MEAN_MOTION_DDOT": 0}, "tle": {"line1": "1 43484U 18048A   25350.98733800  .00000431  00000+0  68710-4 0  9990", "line2": "2 43484  97.8032  55.1117 0013056  51.0289 309.2083 14.76573645406502"}}, "geometry": {"type": "Point", "coordinates": [-124.60183695968074, -0.05950225731149387]}}, {"type": "Feature", "properties": {"norad_id": 43585, "name": "GAOFEN-11 01", "group": "resource", "lat": 80.55951575792268, "lon": -76.72916867464428, "alt_km": 413.9536530820351, "timestamp": "2025-12-17T07:00:46.549270+00:00", "meta": {"OBJECT_NAME": "GAOFEN-11 01", "OBJECT_ID": "2018-063A", "EPOCH": "2025-12-17T00:23:56.527008", "MEAN_MOTION": 15.49336405, "ECCENTRICITY": 0.00041042, "INCLINATION": 97.1564, "RA_OF_ASC_NODE": 53.915, "ARG_OF_PERICENTER": 292.4679, "MEAN_ANOMALY": 67.6138, "EPHEMERIS_TYPE": 0, "CLASSIFICATION_TYPE": "U", "NORAD_CAT_ID": 43585, "ELEMENT_SET_NO": 999, "REV_AT_EPOCH": 41208, "BSTAR": 0.00014972183, "MEAN_MOTION_DOT": 8.107e-05, "MEAN_MOTION_DDOT": 0}, "tle": {"line1": "1 43585U 18063A   25351.01662647  .00008107  00000+0  14972-3 0  9992", "line2": "2 43585  97.1564  53.9150 0004104 292.4679  67.6138 15.49336405412086"}}, "geometry": {"type": "Point", "coordinates": [-76.72916867464428, 80.55951575792268]}}, {"type": "Feature", "properties": {"norad_id": 43613, "name": "ICESAT-2", "group": "resource", "lat": -27.477018111675065, "lon": 60.92165447942605, "alt_km": 486.58170263519696, "timestamp": "2025-12-17T07:00:46.549281+00:00", "meta": {"OBJECT_NAME": "ICESAT-2", "OBJECT_ID": "2018-070A", "EPOCH": "2025-12-16T23:49:20.696160", "MEAN_MOTION": 15.28261577, "ECCENTRICITY": 0.00026167, "INCLINATION": 92.0051, "RA_OF_ASC_NODE": 241.8848, "ARG_OF_PERICENTER": 130.7056, "MEAN_ANOMALY": 229.4421, "EPHEMERIS_TYPE": 0, "CLASSIFICATION_TYPE": "U", "NORAD_CAT_ID": 43613, "ELEMENT_SET_NO": 999, "REV_AT_EPOCH": 40463, "BSTAR": 0.00037605018, "MEAN_MOTION_DOT": 0.00010352, "MEAN_MOTION_DDOT": 0}, "tle": {"line1": "1 43613U 18070A   25350.99260065  .00010352  00000+0  37605-3 0  9999", "line2": "2 43613  92.0051 241.8848 0002616 130.7056 229.4421 15.28261577404633"}}, "geometry": {"type": "Point", "coordinates": [60.92165447942605, -27.477018111675065]}}, {"type": "Feature", "properties": {"norad_id": 43719, "name": "HYSIS", "group": "resource", "lat": -67.89583752635494, "lon": -146.03789022778784, "alt_km": 641.6317421971889, "timestamp": "2025-12-17T07:00:46.549291+00:00", "meta": {"OBJECT_NAME": "HYSIS", "OBJECT_ID": "2018-096A", "EPOCH": "2025-12-16T23:23:33.302400", "MEAN_MOTION": 14.78657388, "ECCENTRICITY": 0.00012166, "INCLINATION": 98.0098, "RA_OF_ASC_NODE": 53.9318, "ARG_OF_PERICENTER": 51.8109, "MEAN_ANOMALY": 308.3211, "EPHEMERIS_TYPE": 0, "CLASSIFICATION_TYPE": "U", "NORAD_CAT_ID": 43719, "ELEMENT_SET_NO": 999, "REV_AT_EPOCH": 38049, "BSTAR": 0.00011955282, "MEAN_MOTION_DOT": 8.24e-06, "MEAN_MOTION_DDOT": 0}, "tle": {"line1": "1 43719U 18096A   25350.97469100  .00000824  00000+0  11955-3 0  9996", "line2": "2 43719  98.0098  53.9318 0001216  51.8109 308.3211 14.78657388380492"}}, "geometry": {"type": "Point", "coordinates": [-146.03789022778784, -67.89583752635494]}}, {"type": "Feature", "properties": {"norad_id": 43783, "name": "KAZSTSAT", "group": "resource", "lat": 74.02032085466428, "lon": -126.5094478516807, "alt_km": 565.483516063865, "timestamp": "2025-12-17T07:00:46.549301+00:00", "meta": {"OBJECT_NAME": "KAZSTSAT", "OBJECT_ID": "2018-099AB", "EPOCH": "2025-12-16T16:08:05.518176", "MEAN_MOTION": 14.99360705, "ECCENTRICITY": 0.0005915, "INCLINATION": 97.4545, "RA_OF_ASC_NODE": 25.6885, "ARG_OF_PERICENTER": 312.8937, "MEAN_ANOMALY": 47.179, "EPHEMERIS_TYPE": 0, "CLASSIFICATION_TYPE": "U", "NORAD_CAT_ID": 43783, "ELEMENT_SET_NO": 999, "REV_AT_EPOCH": 38395, "BSTAR": 6.3941875e-05, "MEAN_MOTION_DOT": 7.26e-06, "MEAN_MOTION_DDOT": 0}, "tle": {"line1": "1 43783U 18099AB  25350.67228609  .00000726  00000+0  63942-4 0  9999", "line2": "2 43783  97.4545  25.6885 0005915 312.8937  47.1790 14.99360705383958"}}, "geometry": {"type": "Point", "coordinates": [-126.5094478516807, 74.02032085466428]}}, {"type": "Feature", "properties": {"norad_id": 43831, "name": "SAUDISAT 5A", "group": "resource", "lat": -47.26985754613685, "lon": -136.6206613057093, "alt_km": 503.2227700644635, "timestamp": "2025-12-17T07:00:46.549312+00:00", "meta": {"OBJECT_NAME": "SAUDISAT 5A", "OBJECT_ID": "2018-102A", "EPOCH": "2025-12-16T23:43:20.562816", "MEAN_MOTION": 15.25710594, "ECCENTRICITY": 0.00115965, "INCLINATION": 97.3355, "RA_OF_ASC_NODE": 51.0978, "ARG_OF_PERICENTER": 63.2733, "MEAN_ANOMALY": 296.9691, "EPHEMERIS_TYPE": 0, "CLASSIFICATION_TYPE": "U", "NORAD_CAT_ID": 43831, "ELEMENT_SET_NO": 999, "REV_AT_EPOCH": 38787, "BSTAR": 0.00021306578, "MEAN_MOTION_DOT": 5.369e-05, "MEAN_MOTION_DDOT": 0}, "tle": {"line1": "1 43831U 18102A   25350.98843244  .00005369  00000+0  21307-3 0  9996", "line2": "2 43831  97.3355  51.0978 0011596  63.2733 296.9691 15.25710594387873"}}, "geometry": {"type": "Point", "coordinates": [-136.6206613057093, -47.26985754613685]}}, {"type": "Feature", "properties": {"norad_id": 43833, "name": "SAUDISAT 5B", "group": "resource", "lat": -72.86264872077271, "lon": 78.87083916425546, "alt_km": 501.26894761071617, "timestamp": "2025-12-17T07:00:46.549322+00:00", "meta": {"OBJECT_NAME": "SAUDISAT 5B", "OBJECT_ID": "2018-102C", "EPOCH": "2025-12-16T23:28:14.121408", "MEAN_MOTION": 15.26060765, "ECCENTRICITY": 0.00123129, "INCLINATION": 97.3449, "RA_OF_ASC_NODE": 53.8336, "ARG_OF_PERICENTER": 65.3743, "MEAN_ANOMALY": 294.8777, "EPHEMERIS_TYPE": 0, "CLASSIFICATION_TYPE": "U", "NORAD_CAT_ID": 43833, "ELEMENT_SET_NO": 999, "REV_AT_EPOCH": 38798, "BSTAR": 0.00019264258, "MEAN_MOTION_DOT": 4.9e-05, "MEAN_MOTION_DDOT": 0}, "tle": {"line1": "1 43833U 18102C   25350.97794122  .00004900  00000+0  19264-3 0  9996", "line2": "2 43833  97.3449  53.8336 0012312  65.3743 294.8777 15.26060765387981"}}, "geometry": {"type": "Point", "coordinates": [78.87083916425546, -72.86264872077271]}}, {"type": "Feature", "properties": {"norad_id": 44622, "name": "GAOFEN-10R", "group": "resource", "lat": -60.557866283546346, "lon": 104.33576413311727, "alt_km": 632.0974533502349, "timestamp": "2025-12-17T07:00:46.549333+00:00", "meta": {"OBJECT_NAME": "GAOFEN-10R", "OBJECT_ID": "2019-066A", "EPOCH": "2025-12-16T23:26:55.650336", "MEAN_MOTION": 14.82806687, "ECCENTRICITY": 0.00075975, "INCLINATION": 98.0282, "RA_OF_ASC_NODE": 298.4998, "ARG_OF_PERICENTER": 29.654, "MEAN_ANOMALY": 330.5102, "EPHEMERIS_TYPE": 0, "CLASSIFICATION_TYPE": "U", "NORAD_CAT_ID": 44622, "ELEMENT_SET_NO": 999, "REV_AT_EPOCH": 33537, "BSTAR": 0.00018195054, "MEAN_MOTION_DOT": 1.418e-05, "MEAN_MOTION_DDOT": 0}, "tle": {"line1": "1 44622U 19066A   25350.97703299  .00001418  00000+0  18195-3 0  9991", "line2": "2 44622  98.0282 298.4998 0007597  29.6540 330.5102 14.82806687335377"}}, "geometry": {"type": "Point", "coordinates": [104.33576413311727, -60.557866283546346]}}]}